[{"OBJECT_NAME":"IRIDIUM 108","OBJECT_ID":"2017-003H","EPOCH":"2026-03-09T14:45:22.333248","MEAN_MOTION":14.34217052,"ECCENTRICITY":0.000234,"INCLINATION":86.3916,"RA_OF_ASC_NODE":98.4141,"ARG_OF_PERICENTER":95.4169,"MEAN_ANOMALY":264.7294,"EPHEMERIS_TYPE":0,"CLASSIFICATION_TYPE":"U","NORAD_CAT_ID":41924,"ELEMENT_SET_NO":999,"REV_AT_EPOCH":48083,"BSTAR":9.2737e-7,"MEAN_MOTION_DOT":2.2e-7,"MEAN_MOTION_DDOT":0},{"OBJECT_NAME":"CZ-4B R\/B","OBJECT_ID":"2021-043D","EPOCH":"2026-03-09T23:25:49.665792","MEAN_MOTION":14.21576382,"ECCENTRICITY":0.01488222,"INCLINATION":66.0649,"RA_OF_ASC_NODE":278.8149,"ARG_OF_PERICENTER":79.6246,"MEAN_ANOMALY":282.1578,"EPHEMERIS_TYPE":0,"CLASSIFICATION_TYPE":"U","NORAD_CAT_ID":48624,"ELEMENT_SET_NO":999,"REV_AT_EPOCH":24947,"BSTAR":0.00011680778,"MEAN_MOTION_DOT":1.97e-6,"MEAN_MOTION_DDOT":0}]
